      2.10          N: GNSS NAV DATA                        RINEX VERSION / TYPE
fic2rin                                 07/28/2023 00:17:45 PGM / RUN BY / DATE
                                                            END OF HEADER
6  23  7 27  1 59 44.0  .573817640543D-03 -.420641299570D-11  .000000000000D+00
     .180000000000D+02 -.659062500000D+02  .363372278771D-08  .217585756788D+01
    -.332109630108D-05  .268071505707D-02  .595860183239D-05  .515371063995D+04
     .352784000000D+06 -.670552253723D-07  .125839549892D+01  .279396772385D-07
     .989196706093D+00  .279937500000D+03 -.762406581523D+00 -.769639201419D-08
    -.517878714584D-10  .100000000000D+01  .227200000000D+04  .000000000000D+00
     .240000000000D+01  .000000000000D+00  .372529029846D-08  .180000000000D+02
     .345600000000D+06  .400000000000D+01
19 23  7 27 22  0  0.0  .349699985236D-03  .511590769747D-11  .000000000000D+00
     .930000000000D+02  .526875000000D+02  .412874340731D-08 -.208083367283D+01
     .306218862534D-05  .948753883131D-02  .355951488018D-05  .515363731194D+04
     .424800000000D+06 -.109896063805D-06  .306900722573D+00  .726431608200D-07
     .972773907275D+00  .318437500000D+03  .236719284436D+01 -.809033699501D-08
     .152863510236D-09  .100000000000D+01  .227200000000D+04  .000000000000D+00
     .240000000000D+01  .000000000000D+00 -.153668224812D-07  .930000000000D+02
     .417600000000D+06  .400000000000D+01
17 23  7 27 22  0  0.0  .721774995327D-03  .682121026330D-12  .000000000000D+00
     .690000000000D+02  .540000000000D+02  .400838125088D-08  .204696849591D+01
     .276044011116D-05  .136157429079D-01  .319071114063D-05  .515355534172D+04
     .424800000000D+06  .296160578728D-06  .262426731447D+00 -.465661287308D-07
     .973700576640D+00  .320000000000D+03 -.140652438085D+01 -.786532762247D-08
     .775032283206D-10  .100000000000D+01  .227200000000D+04  .000000000000D+00
     .340000000000D+01  .000000000000D+00 -.111758708954D-07  .690000000000D+02
     .417600000000D+06  .400000000000D+01
14 23  7 27 22  0  0.0  .135810114443D-03  .118234311230D-10  .000000000000D+00
     .160000000000D+02  .807187500000D+02  .450911639423D-08 -.151435931284D+01
     .423565506935D-05  .342390325386D-02  .862963497639D-05  .515367966652D+04
     .424800000000D+06 -.838190317154D-07 -.816104042923D+00 -.115483999252D-06
     .948120999057D+00  .210375000000D+03 -.296155832564D+01 -.790854370830D-08
    -.242152943785D-09  .100000000000D+01  .227200000000D+04  .000000000000D+00
     .240000000000D+01  .000000000000D+00 -.791624188423D-08  .272000000000D+03
     .417600000000D+06  .400000000000D+01
18 23  7 27 22  0  0.0 -.361401122063D-03 -.138697942020D-10  .000000000000D+00
     .760000000000D+02 -.821875000000D+02  .418267422517D-08  .928022505920D-01
    -.417232513428D-05  .351359986234D-02  .392645597458D-05  .515366867447D+04
     .424800000000D+06  .782310962677D-07  .126626391499D+01  .316649675369D-07
     .973890574589D+00  .310562500000D+03  .313086081237D+01 -.817998358629D-08
    -.142863093678D-11  .100000000000D+01  .227200000000D+04  .000000000000D+00
     .240000000000D+01  .000000000000D+00 -.838190317154D-08  .588000000000D+03
     .417600000000D+06  .400000000000D+01
28 23  7 27 22  0  0.0  .805030576885D-04 -.227373675443D-11  .000000000000D+00
     .145000000000D+03 -.409375000000D+01  .471769651100D-08 -.218995281136D+01
    -.249594449997D-06  .628224690445D-03  .796839594841D-05  .515371059036D+04
     .424800000000D+06 -.745058059692D-08 -.192833303577D+01 -.167638063431D-07
     .961187015309D+00  .228531250000D+03  .163529967648D+01 -.796033157976D-08
    -.466805158594D-09  .100000000000D+01  .227200000000D+04  .000000000000D+00
     .240000000000D+01  .000000000000D+00 -.977888703346D-08  .401000000000D+03
     .417600000000D+06  .400000000000D+01
23 23  7 27 22  0  0.0  .480958260596D-04  .432009983342D-11  .000000000000D+00
     .130000000000D+03 -.817187500000D+02  .410981404739D-08 -.943154927606D+00
    -.421330332756D-05  .342197588179D-02  .936724245548D-05  .515367222977D+04
     .424800000000D+06  .372529029846D-07  .226642978418D+01  .279396772385D-07
     .974759937064D+00  .204625000000D+03 -.310365899176D+01 -.776496629916D-08
     .390016245742D-09  .100000000000D+01  .227200000000D+04  .000000000000D+00
     .240000000000D+01  .000000000000D+00 -.838190317154D-08  .898000000000D+03
     .417600000000D+06  .400000000000D+01
22 23  7 27 22  0  0.0  .518876127899D-03  .534328137292D-11  .000000000000D+00
     .600000000000D+02 -.943750000000D+01  .474055460598D-08  .194251806001D+01
    -.761821866035D-06  .143751214491D-01  .720284879208D-05  .515365215874D+04
     .424800000000D+06  .428408384323D-07 -.285779415339D+01 -.361353158951D-06
     .963229073397D+00  .240937500000D+03 -.179814067349D+01 -.783854079240D-08
     .247510309798D-09  .100000000000D+01  .227200000000D+04  .000000000000D+00
     .240000000000D+01  .630000000000D+02 -.838190317154D-08  .600000000000D+02
     .417600000000D+06  .400000000000D+01
19 23  7 27 21 59 44.0  .349699519575D-03  .511590769747D-11  .000000000000D+00
     .200000000000D+01  .526875000000D+02  .412874340731D-08 -.208316760941D+01
     .306218862534D-05  .948754150886D-02  .355951488018D-05  .515363730431D+04
     .424784000000D+06 -.109896063805D-06  .306900851309D+00  .726431608200D-07
     .972773898497D+00  .318437500000D+03  .236719306234D+01 -.809033699501D-08
     .152863510236D-09  .100000000000D+01  .227200000000D+04  .000000000000D+00
     .240000000000D+01  .000000000000D+00 -.153668224812D-07  .200000000000D+01
     .419100000000D+06  .400000000000D+01
10 23  7 27 21 59 44.0 -.469018705189D-04 -.159161572810D-11  .000000000000D+00
     .580000000000D+02 -.763125000000D+02  .399695220339D-08 -.217279846719D+01
    -.412762165070D-05  .863692234270D-02  .914186239243D-05  .515368972397D+04
     .424784000000D+06  .162050127983D-06  .229393628089D+01 -.428408384323D-07
     .979640016727D+00  .211250000000D+03 -.244058542557D+01 -.760674542291D-08
     .433946647048D-09  .100000000000D+01  .227200000000D+04  .000000000000D+00
     .240000000000D+01  .000000000000D+00  .232830643654D-08  .580000000000D+02
     .419370000000D+06  .400000000000D+01
19 23  7 27 23 59 44.0  .349736772478D-03  .511590769747D-11  .000000000000D+00
     .140000000000D+02  .510312500000D+02  .410624247005D-08 -.103299195004D+01
     .275298953056D-05  .948777678423D-02  .379979610443D-05  .515363685226D+04
     .431984000000D+06 -.156462192535D-06  .306842210238D+00 -.223517417908D-07
     .972774921077D+00  .314968750000D+03  .236721818357D+01 -.813533886952D-08
     .156792245312D-09  .100000000000D+01  .227200000000D+04  .000000000000D+00
     .240000000000D+01  .000000000000D+00 -.153668224812D-07  .140000000000D+02
     .424800000000D+06  .400000000000D+01
10 23  7 27 23 59 44.0 -.469130463898D-04 -.159161572810D-11  .000000000000D+00
     .640000000000D+02 -.800625000000D+02  .392659212975D-08 -.112254571204D+01
    -.401958823204D-05  .863657367881D-02  .932253897190D-05  .515369117737D+04
     .431984000000D+06  .188127160072D-06  .229388163358D+01  .931322574615D-07
     .979643014247D+00  .205343750000D+03 -.244067208299D+01 -.766531929132D-08
     .415017287136D-09  .100000000000D+01  .227200000000D+04  .000000000000D+00
     .240000000000D+01  .000000000000D+00  .232830643654D-08  .640000000000D+02
     .424800000000D+06  .400000000000D+01
2  23  7 28  0  0  0.0 -.571703538299D-03  .397903932026D-11  .000000000000D+00
     .490000000000D+02 -.595937500000D+02  .420481800469D-08 -.264162659298D+01
    -.305846333504D-05  .159323983826D-01  .258535146713D-05  .515355077362D+04
     .432000000000D+06  .206753611565D-06  .116611792828D+01  .838190317154D-07
     .967409126279D+00  .326406250000D+03 -.136412228110D+01 -.789711466081D-08
     .210723063176D-10  .100000000000D+01  .227200000000D+04  .000000000000D+00
     .240000000000D+01  .000000000000D+00 -.176951289177D-07  .490000000000D+02
     .424800000000D+06  .400000000000D+01
1  23  7 28  0  0  0.0  .170987099409D-03 -.170530256582D-11  .000000000000D+00
     .980000000000D+02 -.616562500000D+02  .385551774065D-08  .963013638229D+00
    -.339001417160D-05  .129332054639D-01  .407546758652D-05  .515363832855D+04
     .432000000000D+06 -.149011611938D-06  .126610775726D+01 -.167638063431D-07
     .989992713467D+00  .318687500000D+03  .989127618324D+00 -.806747890002D-08
    -.156077929844D-09  .100000000000D+01  .227200000000D+04  .000000000000D+00
     .240000000000D+01  .630000000000D+02  .465661287308D-08  .980000000000D+02
     .424800000000D+06  .400000000000D+01
5  23  7 28  0  0  0.0 -.136556103826D-03 -.147792889038D-11  .000000000000D+00
     .520000000000D+02 -.741562500000D+02  .419053169532D-08 -.275661691915D+01
    -.419467687607D-05  .605988071766D-02  .928901135921D-05  .515371023560D+04
     .432000000000D+06  .316649675369D-07  .224913420112D+01 -.465661287308D-07
     .966915524553D+00  .200687500000D+03  .119238421863D+01 -.774317967737D-08
     .378230040514D-09  .100000000000D+01  .227200000000D+04  .000000000000D+00
     .240000000000D+01  .000000000000D+00 -.111758708954D-07  .520000000000D+02
     .424800000000D+06  .400000000000D+01
3  23  7 28  0  0  0.0 -.213967170566D-03  .167119651451D-10  .000000000000D+00
     .860000000000D+02 -.724687500000D+02  .401695303650D-08 -.220567184126D+00
    -.379048287868D-05  .505582056940D-02  .924430787563D-05  .515362947845D+04
     .432000000000D+06  .204890966415D-07  .229651216656D+01  .707805156708D-07
     .979921992724D+00  .219156250000D+03  .107487829071D+01 -.775675167127D-08
     .340728478423D-09  .100000000000D+01  .227200000000D+04  .000000000000D+00
     .240000000000D+01  .000000000000D+00  .186264514923D-08  .860000000000D+02
     .424800000000D+06  .400000000000D+01
